NORAD_CAT_ID,OBJECT_NAME,OBJECT_TYPE,EPOCH,MEAN_MOTION,ECCENTRICITY,INCLINATION,RA_OF_ASC_NODE,ARG_OF_PERICENTER,MEAN_ANOMALY,BSTAR,MEAN_MOTION_DOT,MEAN_MOTION_DDOT,TLE_LINE0,TLE_LINE1,TLE_LINE2,SEMIMAJOR_AXIS,PERIOD,APOGEE,PERIGEE,DECAYED
52648.0,STARLINK-3854,PAYLOAD,2023-03-10 12:09:51,15.08874194,0.0001177,53.2141,135.5867,92.7162,267.3964,0.00082453,0.00012871,0.0,0 STARLINK-3854,1 52648U 22052BC  23069.50684956  .00012871  00000-0  82453-3 0  9993,2 52648  53.2141 135.5867 0001177  92.7162 267.3964 15.08874194 46173,6917.776,95.435,540.455,538.827,0.0
52648.0,STARLINK-3854,PAYLOAD,2023-03-10 21:42:11,15.08843999,0.0001436,53.2142,133.8027,74.0508,286.0642,0.00040065,6.095e-05,0.0,0 STARLINK-3854,1 52648U 22052BC  23069.90429593  .00006095  00000-0  40065-3 0  9995,2 52648  53.2142 133.8027 0001436  74.0508 286.0642 15.08843999 45852,6917.868,95.437,540.727,538.74,0.0
52648.0,STARLINK-3854,PAYLOAD,2023-03-11 04:03:44,15.08819958,0.0001083,53.2139,132.6137,74.6909,285.4203,0.00055277,8.516e-05,0.0,0 STARLINK-3854,1 52648U 22052BC  23070.16926206  .00008516  00000-0  55277-3 0  9999,2 52648  53.2139 132.6137 0001083  74.6909 285.4203 15.08819958 46277,6917.942,95.439,540.556,539.057,0.0
52648.0,STARLINK-3854,PAYLOAD,2023-03-11 10:25:17,15.08823527,0.0001281,53.2135,131.4245,68.8882,291.2247,0.0015272,0.0002409,0.0,0 STARLINK-3854,1 52648U 22052BC  23070.43422581  .00024090  00000-0  15272-2 0  9991,2 52648  53.2135 131.4245 0001281  68.8882 291.2247 15.08823527 45937,6917.931,95.439,540.682,538.91,0.0
52648.0,STARLINK-3854,PAYLOAD,2023-03-12 03:54:32,15.08836034,0.0001425,53.2118,128.154,61.7581,298.3555,0.00099946,0.00015652,0.0,0 STARLINK-3854,1 52648U 22052BC  23071.16287403  .00015652  00000-0  99946-3 0  9999,2 52648  53.2118 128.1540 0001425  61.7581 298.3555 15.08836034 46047,6917.893,95.438,540.743,538.772,0.0
52648.0,STARLINK-3854,PAYLOAD,2023-03-12 10:16:04,15.08841773,0.0001297,53.2131,126.9627,73.7012,286.4123,0.00091227,0.00014261,0.0,0 STARLINK-3854,1 52648U 22052BC  23071.42783361  .00014261  00000-0  91227-3 0  9991,2 52648  53.2131 126.9627 0001297  73.7012 286.4123 15.08841773 46464,6917.875,95.437,540.637,538.843,0.0
52648.0,STARLINK-3854,PAYLOAD,2023-03-13 03:45:19,15.08850905,0.000144,53.2147,123.6921,98.11,262.0055,0.00057102,8.814e-05,0.0,0 STARLINK-3854,1 52648U 22052BC  23072.15647010  .00008814  00000-0  57102-3 0  9993,2 52648  53.2147 123.6921 0001440  98.1100 262.0055 15.08850905 46574,6917.847,95.437,540.708,538.716,0.0
52648.0,STARLINK-3854,PAYLOAD,2023-03-14 02:00:42,15.088429,0.0001266,53.2151,119.5297,91.388,268.7257,0.00012773,1.746e-05,0.0,0 STARLINK-3854,1 52648U 22052BC  23073.08382946  .00001746  00000-0  12773-3 0  9992,2 52648  53.2151 119.5297 0001266  91.3880 268.7257 15.08842900 46714,6917.872,95.437,540.612,538.861,0.0
52648.0,STARLINK-3854,PAYLOAD,2023-03-14 08:22:15,15.08842449,0.0001348,53.2151,118.338,110.7791,249.3346,7.7297e-05,9.43e-06,0.0,0 STARLINK-3854,1 52648U 22052BC  23073.34878956  .00000943  00000-0  77297-4 0  9993,2 52648  53.2151 118.3380 0001348 110.7791 249.3346 15.08842449 46376,6917.873,95.437,540.67,538.805,0.0
52648.0,STARLINK-3854,PAYLOAD,2023-03-14 19:29:56,15.08849383,0.0001195,53.215,116.2569,103.6532,256.4594,0.00015321,2.152e-05,0.0,0 STARLINK-3854,1 52648U 22052BC  23073.81246470  .00002152  00000-0  15321-3 0  9998,2 52648  53.2150 116.2569 0001195 103.6532 256.4594 15.08849383 46441,6917.852,95.437,540.543,538.89,0.0
52648.0,STARLINK-3854,PAYLOAD,2023-03-15 11:23:47,15.08864168,0.000125,53.215,113.2823,102.3734,257.7398,0.00041174,6.275e-05,0.0,0 STARLINK-3854,1 52648U 22052BC  23074.47485442  .00006275  00000-0  41174-3 0  9990,2 52648  53.2150 113.2823 0001250 102.3734 257.7398 15.08864168 46920,6917.807,95.436,540.536,538.807,0.0
52648.0,STARLINK-3854,PAYLOAD,2023-03-15 19:20:43,15.08844673,0.0001337,53.2154,111.7977,106.077,254.0369,4.0539e-05,3.57e-06,0.0,0 STARLINK-3854,1 52648U 22052BC  23074.80606113  .00000357  00000-0  40539-4 0  9997,2 52648  53.2154 111.7977 0001337 106.0770 254.0369 15.08844673 46976,6917.866,95.437,540.656,538.806,0.0
52648.0,STARLINK-3854,PAYLOAD,2023-03-16 11:14:35,15.0883619,0.0001813,53.2155,108.8241,105.4034,254.7158,0.00014855,2.077e-05,0.0,0 STARLINK-3854,1 52648U 22052BC  23075.46846476  .00002077  00000-0  14855-3 0  9990,2 52648  53.2155 108.8241 0001813 105.4034 254.7158 15.08836190 47073,6917.892,95.438,541.011,538.503,0.0
52648.0,STARLINK-3854,PAYLOAD,2023-03-16 19:11:31,15.08832826,0.0001748,53.2147,107.3374,92.0873,268.032,0.00035516,5.368e-05,0.0,0 STARLINK-3854,1 52648U 22052BC  23075.79966915  .00005368  00000-0  35516-3 0  9990,2 52648  53.2147 107.3374 0001748  92.0873 268.0320 15.08832826 46748,6917.902,95.438,540.977,538.558,0.0
52648.0,STARLINK-3854,PAYLOAD,2023-03-17 03:08:27,15.08824974,0.0001971,53.2156,105.8491,91.7922,268.3295,-5.931e-05,-1.232e-05,0.0,0 STARLINK-3854,1 52648U 22052BC  23076.13087462 -.00001232  00000-0 -59310-4 0  9997,2 52648  53.2156 105.8491 0001971  91.7922 268.3295 15.08824974 47177,6917.926,95.439,541.155,538.428,0.0
52648.0,STARLINK-3854,PAYLOAD,2023-03-17 09:30:00,15.08818512,0.0001563,53.2148,104.6592,95.3955,264.7215,-0.00031275,-5.259e-05,0.0,0 STARLINK-3854,1 52648U 22052BC  23076.39584291 -.00005259  00000-0 -31275-3 0  9999,2 52648  53.2148 104.6592 0001563  95.3955 264.7215 15.08818512 47218,6917.946,95.439,540.892,538.73,0.0
52648.0,STARLINK-3854,PAYLOAD,2023-03-17 11:05:24,15.08818424,0.0001599,53.2148,104.3615,95.9589,264.1586,-0.0003188,-5.355e-05,0.0,0 STARLINK-3854,1 52648U 22052BC  23076.46208428 -.00005355  00000-0 -31880-3 0  9991,2 52648  53.2148 104.3615 0001599  95.9589 264.1586 15.08818424 46844,6917.946,95.439,540.918,538.705,0.0
52648.0,STARLINK-3854,PAYLOAD,2023-03-17 19:02:19,15.08834228,0.0001422,53.2157,102.8762,94.7344,265.3811,-0.00017761,-3.113e-05,0.0,0 STARLINK-3854,1 52648U 22052BC  23076.79328465 -.00003113  00000-0 -17761-3 0  9993,2 52648  53.2157 102.8762 0001422  94.7344 265.3811 15.08834228 47273,6917.898,95.438,540.747,538.779,0.0
52648.0,STARLINK-3854,PAYLOAD,2023-03-18 01:23:52,15.08819914,0.0001365,53.2152,101.6857,103.1468,256.9676,0.00011411,1.528e-05,0.0,0 STARLINK-3854,1 52648U 22052BC  23077.05825049  .00001528  00000-0  11411-3 0  9995,2 52648  53.2152 101.6857 0001365 103.1468 256.9676 15.08819914 47313,6917.942,95.439,540.751,538.862,0.0
52648.0,STARLINK-3854,PAYLOAD,2023-03-18 07:45:25,15.08827448,0.0001449,53.2155,100.4967,99.6855,260.43,0.00017046,2.425e-05,0.0,0 STARLINK-3854,1 52648U 22052BC  23077.32320802  .00002425  00000-0  17046-3 0  9999,2 52648  53.2155 100.4967 0001449  99.6855 260.4300 15.08827448 47356,6917.919,95.438,540.786,538.781,0.0
52648.0,STARLINK-3854,PAYLOAD,2023-03-18 18:53:06,15.08843115,0.0001556,53.2157,98.4153,98.271,261.8458,0.00019462,2.811e-05,0.0,0 STARLINK-3854,1 52648U 22052BC  23077.78687931  .00002811  00000-0  19462-3 0  9991,2 52648  53.2157  98.4153 0001556  98.2710 261.8458 15.08843115 47421,6917.871,95.437,540.812,538.659,0.0
52648.0,STARLINK-3854,PAYLOAD,2023-03-19 07:36:11,15.08857821,0.0001309,53.2142,96.0359,98.5636,261.5504,0.00065584,0.0001017,0.0,0 STARLINK-3854,1 52648U 22052BC  23078.31680049  .00010170  00000-0  65584-3 0  9997,2 52648  53.2142  96.0359 0001309  98.5636 261.5504 15.08857821 47128,6917.826,95.436,540.596,538.785,0.0
52648.0,STARLINK-3854,PAYLOAD,2023-03-20 04:16:11,15.08859988,0.0001479,53.2142,92.1692,86.8097,273.3065,0.00035047,5.297e-05,0.0,0 STARLINK-3854,1 52648U 22052BC  23079.17791545  .00005297  00000-0  35047-3 0  9991,2 52648  53.2142  92.1692 0001479  86.8097 273.3065 15.08859988 47639,6917.819,95.436,540.707,538.661,0.0
52648.0,STARLINK-3854,PAYLOAD,2023-03-20 10:37:44,15.08859532,0.0001506,53.2142,90.9809,85.0312,275.0853,0.00051325,7.894e-05,0.0,0 STARLINK-3854,1 52648U 22052BC  23079.44287307  .00007894  00000-0  51325-3 0  9999,2 52648  53.2142  90.9809 0001506  85.0312 275.0853 15.08859532 47298,6917.821,95.436,540.728,538.644,0.0
52648.0,STARLINK-3854,PAYLOAD,2023-03-21 04:06:58,15.08844471,0.0001537,53.2141,87.7076,86.8506,273.2662,-5.617e-06,-3.77e-06,0.0,0 STARLINK-3854,1 52648U 22052BC  23080.17151400 -.00000377  00000-0 -56170-5 0  9991,2 52648  53.2141  87.7076 0001537  86.8506 273.2662 15.08844471 47783,6917.867,95.437,540.795,538.668,0.0
52648.0,STARLINK-3854,PAYLOAD,2023-03-21 07:17:44,15.08849602,0.0001471,53.2136,87.1129,87.3801,272.736,-3.8536e-05,-9.01e-06,0.0,0 STARLINK-3854,1 52648U 22052BC  23080.30399154 -.00000901  00000-0 -38536-4 0  9994,2 52648  53.2136  87.1129 0001471  87.3801 272.7360 15.08849602 47422,6917.851,95.437,540.734,538.698,0.0
52648.0,STARLINK-3854,PAYLOAD,2023-03-22 03:57:46,15.08836821,0.0001635,53.2144,83.2453,104.1852,255.9322,-3.5453e-05,-8.52e-06,0.0,0 STARLINK-3854,1 52648U 22052BC  23081.16511681 -.00000852  00000-0 -35453-4 0  9990,2 52648  53.2144  83.2453 0001635 104.1852 255.9322 15.08836821 47930,6917.89,95.438,540.886,538.624,0.0
52648.0,STARLINK-3854,PAYLOAD,2023-03-22 16:40:51,15.08841713,0.0001429,53.2159,80.8695,93.928,266.1875,2.5997e-05,1.26e-06,0.0,0 STARLINK-3854,1 52648U 22052BC  23081.69503727  .00000126  00000-0  25997-4 0  9994,2 52648  53.2159  80.8695 0001429  93.9280 266.1875 15.08841713 47638,6917.875,95.437,540.729,538.752,0.0
52648.0,STARLINK-3854,PAYLOAD,2023-03-23 06:59:19,15.08842639,0.0001502,53.2157,78.1932,102.7925,257.3235,0.00012549,1.71e-05,0.0,0 STARLINK-3854,1 52648U 22052BC  23082.29119608  .00001710  00000-0  12549-3 0  9990,2 52648  53.2157  78.1932 0001502 102.7925 257.3235 15.08842639 48100,6917.872,95.437,540.776,538.698,0.0
52648.0,STARLINK-3854,PAYLOAD,2023-03-23 16:31:38,15.08840534,0.0001554,53.2158,76.4093,119.0009,241.1139,-1.3748e-05,-5.07e-06,0.0,0 STARLINK-3854,1 52648U 22052BC  23082.68863706 -.00000507  00000-0 -13748-4 0  9996,2 52648  53.2158  76.4093 0001554 119.0009 241.1139 15.08840534 47780,6917.879,95.438,540.819,538.669,0.0
